{
    "links": {
        "self": "http://www.neowsapp.com/rest/v1/neo/3646913?api_key=iIulBulltgU6a56xZRHN4H3l9WmuAYTsLGpBGhQ2"
    },
    "id": "3646913",
    "neo_reference_id": "3646913",
    "name": "(2013 RE)",
    "designation": "2013 RE",
    "nasa_jpl_url": "http://ssd.jpl.nasa.gov/sbdb.cgi?sstr=3646913",
    "absolute_magnitude_h": 24.0,
    "estimated_diameter": {
        "kilometers": {
            "estimated_diameter_min": 0.0421264611,
            "estimated_diameter_max": 0.0941976306
        },
        "meters": {
            "estimated_diameter_min": 42.1264610556,
            "estimated_diameter_max": 94.1976305719
        },
        "miles": {
            "estimated_diameter_min": 0.0261761612,
            "estimated_diameter_max": 0.0585316759
        },
        "feet": {
            "estimated_diameter_min": 138.2101784897,
            "estimated_diameter_max": 309.0473542854
        }
    },
    "is_potentially_hazardous_asteroid": false,
    "close_approach_data": [
        {
            "close_approach_date": "2013-09-01",
            "close_approach_date_full": "2013-Sep-01 00:26",
            "epoch_date_close_approach": 1377995160000,
            "relative_velocity": {
                "kilometers_per_second": "6.2398601177",
                "kilometers_per_hour": "22463.496423542",
                "miles_per_hour": "13957.9430971725"
            },
            "miss_distance": {
                "astronomical": "0.0980453413",
                "lunar": "38.1396377657",
                "kilometers": "14667374.221903031",
                "miles": "9113883.7250865878"
            },
            "orbiting_body": "Earth"
        }
    ],
    "orbital_data": {
        "orbit_id": "13",
        "orbit_determination_date": "2017-04-06 08:44:57",
        "first_observation_date": "2013-09-01",
        "last_observation_date": "2013-10-04",
        "data_arc_in_days": 33,
        "observations_used": 48,
        "orbit_uncertainty": "7",
        "minimum_orbit_intersection": ".0868355",
        "jupiter_tisserand_invariant": "3.179",
        "epoch_osculation": "2459000.5",
        "eccentricity": ".5726598234677435",
        "semi_major_axis": "2.563081770507461",
        "inclination": "3.407749931277189",
        "ascending_node_longitude": "161.6599591257486",
        "orbital_period": "1498.794599467154",
        "perihelion_distance": "1.095307816275267",
        "perihelion_argument": "178.3221273884258",
        "aphelion_distance": "4.030855724739656",
        "perihelion_time": "2459548.341189740572",
        "mean_anomaly": "228.4123705965301",
        "mean_motion": ".2401930191955495",
        "equinox": "J2000",
        "orbit_class": {
            "orbit_class_type": "AMO",
            "orbit_class_description": "Near-Earth asteroid orbits similar to that of 1221 Amor",
            "orbit_class_range": "1.017 AU < q (perihelion) < 1.3 AU"
        }
    },
    "is_sentry_object": false
}